[{"OBJECT_NAME":"STARLINK-3653","OBJECT_ID":"2022-025AW","EPOCH":"2026-03-09T06:51:46.737504","MEAN_MOTION":15.08835173,"ECCENTRICITY":0.0001498,"INCLINATION":53.2189,"RA_OF_ASC_NODE":20.8415,"ARG_OF_PERICENTER":111.5022,"MEAN_ANOMALY":248.613,"EPHEMERIS_TYPE":0,"CLASSIFICATION_TYPE":"U","NORAD_CAT_ID":52000,"ELEMENT_SET_NO":999,"REV_AT_EPOCH":22086,"BSTAR":-1.977561e-5,"MEAN_MOTION_DOT":-6.03e-6,"MEAN_MOTION_DDOT":0},{"OBJECT_NAME":"OBJECT A","OBJECT_ID":"2024-128A","EPOCH":"2026-03-09T23:23:08.128896","MEAN_MOTION":15.00647164,"ECCENTRICITY":0.00604583,"INCLINATION":61.9933,"RA_OF_ASC_NODE":216.2149,"ARG_OF_PERICENTER":112.7248,"MEAN_ANOMALY":248.0248,"EPHEMERIS_TYPE":0,"CLASSIFICATION_TYPE":"U","NORAD_CAT_ID":60235,"ELEMENT_SET_NO":999,"REV_AT_EPOCH":9111,"BSTAR":0.00034041236,"MEAN_MOTION_DOT":4.284e-5,"MEAN_MOTION_DDOT":0}]
